CCSDS_OEM_VERS = 2.0  
CREATION_DATE  = 2026-02-27T09:26:39
ORIGINATOR     = ESOC/OPS-GFA                            
 
 



META_START
OBJECT_NAME          = LISA                                    
OBJECT_ID            = -1000                                   
CENTER_NAME          = SUN                     
REF_FRAME            = EME2000 
TIME_SYSTEM          = TCB
START_TIME           = 2036-12-23T00:00:30.346418            
STOP_TIME            = 2047-09-08T04:13:41.290688            
INTERPOLATION        = HERMITE                                 
INTERPOLATION_DEGREE = 7                                       
META_STOP

2038-02-22T00:40:28.094321    -9.87250025685492009e+07    1.03187773663922116e+08    4.52379885350834951e+07   -2.22798406127391360e+01   -1.79806169431880605e+01   -8.04495133523259298e+00    3.89737763810958122e-06   -4.07366198195187075e-06   -1.78591064469433111e-06
2038-02-22T20:46:04.494279    -1.00326393325299591e+08    1.01876506996035665e+08    4.46513930882776082e+07   -2.19955995672777185e+01   -1.82734516932611655e+01   -8.17331457762113267e+00    3.96135816056825465e-06   -4.02266629334832542e-06   -1.76309076382415920e-06
2038-02-23T16:51:40.894238    -1.01907056413638115e+08    1.00544191879547834e+08    4.40555723360598460e+07   -2.17067588975560213e+01   -1.85625669086227099e+01   -8.30001365396408985e+00    4.02454852357456035e-06   -3.97082367660059472e-06   -1.73989951037150143e-06
2038-02-24T13:00:57.392112    -1.03471374170916736e+08    9.91869511344773769e+07    4.34487932694870308e+07   -2.14124766964424182e+01   -1.88487640485122405e+01   -8.42539961934441628e+00    4.08712402514458304e-06   -3.91798275087729903e-06   -1.71626920422246037e-06
2038-02-25T09:10:13.889985    -1.05014175860885352e+08    9.78090847571971714e+07    4.28329791613125727e+07   -2.11136839753206296e+01   -1.91310969951373728e+01   -8.54905779839764435e+00    4.14887755598889932e-06   -3.86430997030123791e-06   -1.69227432467156702e-06
2038-02-26T05:19:30.387858    -1.06535136422090843e+08    9.64108753065923601e+07    4.22082563317491040e+07   -2.08104408552812856e+01   -1.94095057691372084e+01   -8.67096190775982301e+00    4.20979585298229024e-06   -3.80981575363840302e-06   -1.66791953518070069e-06
2038-02-27T01:28:46.885731    -1.08033935131282747e+08    9.49926096482364386e+07    4.15747529881698936e+07   -2.05028084158267099e+01   -1.96839311524421952e+01   -8.79108600476992308e+00    4.26986576408469936e-06   -3.75451066908775797e-06   -1.64320956460801334e-06
2038-02-27T21:38:03.383604    -1.09510255723212034e+08    9.35545789148834944e+07    4.09325992071149722e+07   -2.01908486861632070e+01   -1.99543146995456411e+01   -8.90940449239943177e+00    4.32907426565292763e-06   -3.69840544561765747e-06   -1.61814921208569625e-06
2038-02-28T17:47:19.881477    -1.10963786485670134e+08    9.20970784583503455e+07    4.02819269126044437e+07   -1.98746246353433946e+01   -2.02205987495049584e+01   -9.02589212449598755e+00    4.38740847689470688e-06   -3.64151098182456255e-06   -1.59274335083372917e-06
2038-03-01T13:56:36.379350    -1.12394220335029274e+08    9.06204077944594324e+07    3.96228698514738083e+07   -1.95542001614632497e+01   -2.04827264384958383e+01   -9.14052401126516578e+00    4.44485567147217706e-06   -3.58383835231810417e-06   -1.56699693091129254e-06
2038-03-02T10:05:52.877223    -1.13801254877529174e+08    8.91248705427252948e+07    3.89555635664513335e+07   -1.92296400801209728e+01   -2.07406417127397944e+01   -9.25327562491325217e+00    4.50140328624506872e-06   -3.52539881162416140e-06   -1.54091498090225575e-06
2038-03-03T06:15:09.375096    -1.15184592461554959e+08    8.76107743624670208e+07    3.82801453676973060e+07   -1.89010101123447107e+01   -2.09942893416252332e+01   -9.36412280537383701e+00    4.55703892717025364e-06   -3.46620379562054381e-06   -1.51450260854104822e-06
2038-03-04T02:24:25.872969    -1.16543940226151332e+08    8.60784308870293498e+07    3.75967543035251498e+07   -1.85683768721962110e+01   -2.12436149308424937e+01   -9.47304176604105308e+00    4.61175037233074901e-06   -3.40626492048169548e-06   -1.48776500026869225e-06
2038-03-04T22:33:42.370842    -1.17879010151017785e+08    8.45281556577944756e+07    3.69055311310242414e+07   -1.82318078542575428e+01   -2.14885649353530823e+01   -9.58000909943230639e+00    4.66552557213222149e-06   -3.34559397916466793e-06   -1.46070741973303286e-06
2038-03-05T18:42:58.868715    -1.19189519113229886e+08    8.29602680596678257e+07    3.62066182873045430e+07   -1.78913714212078752e+01   -2.17290866720134730e+01   -9.68500178270330991e+00    4.71835264663374070e-06   -3.28420293541131284e-06   -1.43333520522222356e-06
2038-03-06T14:52:15.366588    -1.20475188955931410e+08    8.13750912597196698e+07    3.55001598620827422e+07   -1.75471367916974827e+01   -2.19651283316737143e+01   -9.78799718293825372e+00    4.77021988000268233e-06   -3.22210391524977175e-06   -1.40565376602407346e-06
2038-03-07T11:01:31.864461    -1.21735746574242800e+08    7.97729521506652236e+07    3.47863015723300129e+07   -1.71991740287259525e+01   -2.21966389905712376e+01   -9.88897306213796057e+00    4.82111571217609701e-06   -3.15930919607785194e-06   -1.37766857774740218e-06
2038-03-08T07:10:48.362334    -1.22970924023629874e+08    7.81541813008662462e+07    3.40651907397011667e+07   -1.68475540287317962e+01   -2.24235686208400864e+01   -9.98790758182884630e+00    4.87102872761126827e-06   -3.09583119321678542e-06   -1.34938517655659060e-06
2038-03-09T03:20:04.860207    -1.24180458655978709e+08    7.65191129125359058e+07    3.33369762714653388e+07   -1.64923485116003938e+01   -2.26458680999559725e+01   -1.00847793072155021e+01    4.91994764116074951e-06   -3.03168244396719439e-06   -1.32080915233326265e-06
2038-03-09T23:35:41.798132    -1.25370230510501936e+08    7.48593863119318187e+07    3.25979358047581911e+07   -1.61317399766565224e+01   -2.28646178838238399e+01   -1.01800586949823266e+01    4.96811028617722996e-06   -2.96653443580458767e-06   -1.29179421488912883e-06
2038-03-10T19:51:18.736056    -1.26533573498475477e+08    7.31838786457988918e+07    3.18520233838228881e+07   -1.57676559785968227e+01   -2.30785921257931328e+01   -1.02732114272834565e+01    5.01524634248913827e-06   -2.90073476851511667e-06   -1.26249522838337562e-06
2038-03-11T16:06:55.673980    -1.27670236904178813e+08    7.14929399482057542e+07    3.10993948701410070e+07   -1.54001717846429269e+01   -2.32877437818216428e+01   -1.03642170029864555e+01    5.06134511243309588e-06   -2.83429678996387756e-06   -1.23291814015238401e-06
2038-03-12T12:22:32.611904    -1.28779975464026809e+08    6.97869236441387385e+07    3.03402076028192081e+07   -1.50293634367920852e+01   -2.34920267863056047e+01   -1.04530553569052973e+01    5.10639605280309355e-06   -2.76723398319622204e-06   -1.20306895741209435e-06
2038-03-13T08:38:09.549828    -1.29862549479613751e+08    6.80661864828082472e+07    2.95746203686085977e+07   -1.46553077396943259e+01   -2.36913960621688666e+01   -1.05397068642604061e+01    5.15038879759845649e-06   -2.69955997237622707e-06   -1.17295374964536253e-06
2038-03-14T04:53:46.487753    -1.30917724902654707e+08    6.63310884677249193e+07    2.88027933706155196e+07   -1.42780822470202899e+01   -2.38858075313192515e+01   -1.06241523452847630e+01    5.19331317675074335e-06   -2.63128852698221030e-06   -1.14257865024845438e-06
2038-03-15T01:09:23.425676    -1.31945273397748217e+08    6.45819927840689197e+07    2.80248881959097013e+07   -1.38977652466095698e+01   -2.40752181253474333e+01   -1.07063730699231066e+01    5.23515923083674234e-06   -2.56243356426182933e-06   -1.11194985743765855e-06
2038-03-15T21:25:00.363600    -1.32944972388870731e+08    6.28192657238897160e+07    2.72410677822420597e+07   -1.35144357446926602e+01   -2.42595857963412485e+01   -1.07863507625702102e+01    5.27591722176679041e-06   -2.49300914994060652e-06   -1.08107363441346111e-06
2038-03-16T17:40:37.301524    -1.33916605095513612e+08    6.10432766096743494e+07    2.64514963840845451e+07   -1.31281734494794833e+01   -2.44388695276882970e+01   -1.08640676067941957e+01    5.31557763946765565e-06   -2.42302949719454874e-06   -1.04995630878687541e-06
2038-03-17T13:56:14.239449    -1.34859960564373404e+08    5.92543977168214470e+07    2.56563395382041857e+07   -1.27390587544075622e+01   -2.46130293447397754e+01   -1.09395062499908633e+01    5.35413120452833449e-06   -2.35250896386970668e-06   -1.01860427126041478e-06
2038-03-18T10:11:51.177373    -1.35774833702505976e+08    5.74530041955588609e+07    2.48557640289838687e+07   -1.23471727213428473e+01   -2.47820263252084239e+01   -1.10126498079150004e+01    5.39156886685356495e-06   -2.28146204797192516e-06   -9.87023973573926727e-07
2038-03-19T06:27:28.115297    -1.36661025317855388e+08    5.56394739928423837e+07    2.40499378537019789e+07   -1.19525970640262251e+01   -2.49458226091735114e+01   -1.10834818690346548e+01    5.42788180028661583e-06   -2.20990338140949818e-06   -9.55221925707629742e-07
2038-03-20T02:43:05.053221    -1.37518342173067689e+08    5.38141877747732550e+07    2.32390301879833341e+07   -1.15554141320587540e+01   -2.51043814085657075e+01   -1.11519864986543347e+01    5.46306139318734873e-06   -2.13784772197411869e-06   -9.23204692336200382e-07
2038-03-20T22:58:41.991146    -1.38346597058501244e+08    5.19775288500719368e+07    2.24232113516336903e+07   -1.11557068957186480e+01   -2.52576670160048344e+01   -1.12181482427531041e+01    5.49709923506576717e-06   -2.06530994362380008e-06   -8.90978888561373089e-07
2038-03-21T19:14:18.929070    -1.39145608890343159e+08    5.01298830951461941e+07    2.16026527750700675e+07   -1.07535589319029992e+01   -2.54056448128633043e+01   -1.12819521314835587e+01    5.52998709913002410e-06   -1.99230502498318034e-06   -8.58551174886433471e-07
